start=new Date('2023-03-06T00:00:00.000Z').valueOf();
sats=[{"MEAN_ANOMALY":"269.6359","PERIOD":"95.437","EPHEMERIS_TYPE":"0","RCS_SIZE":"LARGE","MEAN_MOTION_DDOT":"0.0000000000000","SITE":"AFETR","CLASSIFICATION_TYPE":"U","BSTAR":"0.00129230000000","REV_AT_EPOCH":"7260","TLE_LINE2":"2 49430  53.2134 126.3392 0001777  90.4836 269.6359 15.08852735 72607","ARG_OF_PERICENTER":"90.4836","OBJECT_TYPE":"PAYLOAD","TIME_SYSTEM":"UTC","ELEMENT_SET_NO":"999","MEAN_MOTION_DOT":"0.00020346","DECAY_DATE":null,"SEMIMAJOR_AXIS":"6917.841","MEAN_ELEMENT_THEORY":"SGP4","ECCENTRICITY":"0.00017770","TLE_LINE1":"1 49430U 21104Y   23064.88386010  .00020346  00000-0  12923-2 0  9991","FILE":"3852256","OBJECT_ID":"2021-104Y","EPOCH":"2023-03-05T21:12:45.512640","REF_FRAME":"TEME","APOAPSIS":"540.936","CENTER_NAME":"EARTH","NORAD_CAT_ID":"49430","INCLINATION":"53.2134","GP_ID":"227580159","PERIAPSIS":"538.477","OBJECT_NAME":"STARLINK-3138","LAUNCH_DATE":"2021-11-13","MEAN_MOTION":"15.08852735","COUNTRY_CODE":"US","RA_OF_ASC_NODE":"126.3392"},{"SITE":"AFETR","CLASSIFICATION_TYPE":"U","MEAN_MOTION_DDOT":"0.0000000000000","RCS_SIZE":"LARGE","MEAN_ANOMALY":"259.9079","PERIOD":"95.438","EPHEMERIS_TYPE":"0","REV_AT_EPOCH":"7252","OBJECT_TYPE":"PAYLOAD","TLE_LINE2":"2 49431  53.2130 128.6021 0001820 100.2119 259.9079 15.08836040 72524","ARG_OF_PERICENTER":"100.2119","TIME_SYSTEM":"UTC","ELEMENT_SET_NO":"999","BSTAR":"0.00134200000000","FILE":"3852256","OBJECT_ID":"2021-104Z","EPOCH":"2023-03-05T09:08:08.412288","REF_FRAME":"TEME","APOAPSIS":"541.017","ECCENTRICITY":"0.00018200","TLE_LINE1":"1 49431U 21104Z   23064.38065292  .00021132  00000-0  13420-2 0  9990","DECAY_DATE":null,"MEAN_ELEMENT_THEORY":"SGP4","SEMIMAJOR_AXIS":"6917.892","MEAN_MOTION_DOT":"0.00021132","LAUNCH_DATE":"2021-11-13","COUNTRY_CODE":"US","MEAN_MOTION":"15.08836040","RA_OF_ASC_NODE":"128.6021","OBJECT_NAME":"STARLINK-3153","INCLINATION":"53.2130","GP_ID":"227580910","PERIAPSIS":"538.498","CENTER_NAME":"EARTH","NORAD_CAT_ID":"49431"},{"MEAN_MOTION_DOT":"0.00024145","SEMIMAJOR_AXIS":"6917.848","MEAN_ELEMENT_THEORY":"SGP4","DECAY_DATE":null,"ECCENTRICITY":"0.00016500","TLE_LINE1":"1 49432U 21104AA  23064.84893782  .00024145  00000-0  15295-2 0  9994","APOAPSIS":"540.854","EPOCH":"2023-03-05T20:22:28.227648","REF_FRAME":"TEME","OBJECT_ID":"2021-104AA","FILE":"3852256","NORAD_CAT_ID":"49432","CENTER_NAME":"EARTH","PERIAPSIS":"538.571","GP_ID":"227581632","INCLINATION":"53.2176","OBJECT_NAME":"STARLINK-3158","RA_OF_ASC_NODE":"116.4942","COUNTRY_CODE":"US","MEAN_MOTION":"15.08850637","LAUNCH_DATE":"2021-11-13","EPHEMERIS_TYPE":"0","PERIOD":"95.437","MEAN_ANOMALY":"271.0549","RCS_SIZE":"LARGE","MEAN_MOTION_DDOT":"0.0000000000000","CLASSIFICATION_TYPE":"U","SITE":"AFETR","BSTAR":"0.00152950000000","ELEMENT_SET_NO":"999","TLE_LINE2":"2 49432  53.2176 116.4942 0001650  89.0632 271.0549 15.08850637 72735","OBJECT_TYPE":"PAYLOAD","TIME_SYSTEM":"UTC","ARG_OF_PERICENTER":"89.0632","REV_AT_EPOCH":"7273"},{"MEAN_MOTION_DOT":"0.00001072","MEAN_ELEMENT_THEORY":"SGP4","SEMIMAJOR_AXIS":"6917.893","DECAY_DATE":null,"TLE_LINE1":"1 49433U 21104AB  23064.84890147  .00001072  00000-0  85467-4 0  9991","ECCENTRICITY":"0.00017470","EPOCH":"2023-03-05T20:22:25.087008","REF_FRAME":"TEME","APOAPSIS":"540.967","FILE":"3852256","OBJECT_ID":"2021-104AB","NORAD_CAT_ID":"49433","CENTER_NAME":"EARTH","PERIAPSIS":"538.550","INCLINATION":"53.2160","GP_ID":"227581392","OBJECT_NAME":"STARLINK-3079","RA_OF_ASC_NODE":"106.4968","LAUNCH_DATE":"2021-11-13","MEAN_MOTION":"15.08835804","COUNTRY_CODE":"US","PERIOD":"95.438","EPHEMERIS_TYPE":"0","MEAN_ANOMALY":"265.6015","RCS_SIZE":"LARGE","MEAN_MOTION_DDOT":"0.0000000000000","SITE":"AFETR","CLASSIFICATION_TYPE":"U","BSTAR":"0.00008546700000","TLE_LINE2":"2 49433  53.2160 106.4968 0001747  94.5177 265.6015 15.08835804 73960","TIME_SYSTEM":"UTC","OBJECT_TYPE":"PAYLOAD","ARG_OF_PERICENTER":"94.5177","ELEMENT_SET_NO":"999","REV_AT_EPOCH":"7396"},{"TLE_LINE1":"1 49434U 21104AC  23064.88113664  .00020857  00000-0  13246-2 0  9994","ECCENTRICITY":"0.00009040","FILE":"3852256","OBJECT_ID":"2021-104AC","REF_FRAME":"TEME","EPOCH":"2023-03-05T21:08:50.205696","APOAPSIS":"540.365","MEAN_MOTION_DOT":"0.00020857","DECAY_DATE":null,"MEAN_ELEMENT_THEORY":"SGP4","SEMIMAJOR_AXIS":"6917.874","OBJECT_NAME":"STARLINK-3134","LAUNCH_DATE":"2021-11-13","MEAN_MOTION":"15.08841939","COUNTRY_CODE":"US","RA_OF_ASC_NODE":"126.3637","CENTER_NAME":"EARTH","NORAD_CAT_ID":"49434","INCLINATION":"53.2155","GP_ID":"227580637","PERIAPSIS":"539.114","MEAN_MOTION_DDOT":"0.0000000000000","SITE":"AFETR","CLASSIFICATION_TYPE":"U","MEAN_ANOMALY":"261.1910","EPHEMERIS_TYPE":"0","PERIOD":"95.437","RCS_SIZE":"LARGE","REV_AT_EPOCH":"7368","ARG_OF_PERICENTER":"98.9185","TLE_LINE2":"2 49434  53.2155 126.3637 0000904  98.9185 261.1910 15.08841939 73680","OBJECT_TYPE":"PAYLOAD","TIME_SYSTEM":"UTC","ELEMENT_SET_NO":"999","BSTAR":"0.00132460000000"},{"MEAN_MOTION_DOT":"0.00006511","DECAY_DATE":null,"MEAN_ELEMENT_THEORY":"SGP4","SEMIMAJOR_AXIS":"6917.921","ECCENTRICITY":"0.00016070","TLE_LINE1":"1 49435U 21104AD  23063.85993561  .00006511  00000-0  42696-3 0  9996","OBJECT_ID":"2021-104AD","FILE":"3851350","APOAPSIS":"540.898","EPOCH":"2023-03-04T20:38:18.436704","REF_FRAME":"TEME","CENTER_NAME":"EARTH","NORAD_CAT_ID":"49435","GP_ID":"227508054","INCLINATION":"53.2155","PERIAPSIS":"538.674","OBJECT_NAME":"STARLINK-3117","MEAN_MOTION":"15.08826736","COUNTRY_CODE":"US","LAUNCH_DATE":"2021-11-13","RA_OF_ASC_NODE":"110.9360","MEAN_ANOMALY":"285.1247","EPHEMERIS_TYPE":"0","PERIOD":"95.438","RCS_SIZE":"LARGE","MEAN_MOTION_DDOT":"0.0000000000000","CLASSIFICATION_TYPE":"U","SITE":"AFETR","BSTAR":"0.00042696000000","REV_AT_EPOCH":"7272","ELEMENT_SET_NO":"999","TLE_LINE2":"2 49435  53.2155 110.9360 0001607  74.9923 285.1247 15.08826736 72729","ARG_OF_PERICENTER":"74.9923","OBJECT_TYPE":"PAYLOAD","TIME_SYSTEM":"UTC"},{"MEAN_MOTION_DDOT":"0.0000000000000","SITE":"AFETR","CLASSIFICATION_TYPE":"U","MEAN_ANOMALY":"282.3587","EPHEMERIS_TYPE":"0","PERIOD":"95.437","RCS_SIZE":"LARGE","REV_AT_EPOCH":"7287","TLE_LINE2":"2 49436  53.2142 106.4815 0001866  77.7614 282.3587 15.08850447 72874","TIME_SYSTEM":"UTC","OBJECT_TYPE":"PAYLOAD","ARG_OF_PERICENTER":"77.7614","ELEMENT_SET_NO":"999","BSTAR":"0.00141960000000","ECCENTRICITY":"0.00018660","TLE_LINE1":"1 49436U 21104AE  23064.85258109  .00022384  00000-0  14196-2 0  9999","FILE":"3852256","OBJECT_ID":"2021-104AE","REF_FRAME":"TEME","EPOCH":"2023-03-05T20:27:43.006176","APOAPSIS":"541.004","MEAN_MOTION_DOT":"0.00022384","DECAY_DATE":null,"SEMIMAJOR_AXIS":"6917.848","MEAN_ELEMENT_THEORY":"SGP4","OBJECT_NAME":"STARLINK-3049","LAUNCH_DATE":"2021-11-13","COUNTRY_CODE":"US","MEAN_MOTION":"15.08850447","RA_OF_ASC_NODE":"106.4815","CENTER_NAME":"EARTH","NORAD_CAT_ID":"49436","INCLINATION":"53.2142","GP_ID":"227581155","PERIAPSIS":"538.423"},{"EPOCH":"2023-03-05T20:17:07.119456","REF_FRAME":"TEME","APOAPSIS":"540.995","FILE":"3852256","OBJECT_ID":"2021-104AF","TLE_LINE1":"1 49437U 21104AF  23064.84522129  .00012784  00000-0  81976-3 0  9999","ECCENTRICITY":"0.00018280","MEAN_ELEMENT_THEORY":"SGP4","SEMIMAJOR_AXIS":"6917.865","DECAY_DATE":null,"MEAN_MOTION_DOT":"0.00012784","RA_OF_ASC_NODE":"106.5132","LAUNCH_DATE":"2021-11-13","MEAN_MOTION":"15.08844991","COUNTRY_CODE":"US","OBJECT_NAME":"STARLINK-3130","PERIAPSIS":"538.466","INCLINATION":"53.2152","GP_ID":"227581870","NORAD_CAT_ID":"49437","CENTER_NAME":"EARTH","SITE":"AFETR","CLASSIFICATION_TYPE":"U","MEAN_MOTION_DDOT":"0.0000000000000","RCS_SIZE":"LARGE","EPHEMERIS_TYPE":"0","PERIOD":"95.437","MEAN_ANOMALY":"280.6845","TLE_LINE2":"2 49437  53.2152 106.5132 0001828  79.4353 280.6845 15.08844991 72871","OBJECT_TYPE":"PAYLOAD","TIME_SYSTEM":"UTC","ARG_OF_PERICENTER":"79.4353","ELEMENT_SET_NO":"999","REV_AT_EPOCH":"7287","BSTAR":"0.00081976000000"},{"FILE":"3852256","OBJECT_ID":"2021-104AG","EPOCH":"2023-03-05T20:11:46.786272","REF_FRAME":"TEME","APOAPSIS":"540.523","ECCENTRICITY":"0.00015700","TLE_LINE1":"1 49438U 21104AG  23064.84151373  .00072792  00000-0  45324-2 0  9990","DECAY_DATE":null,"MEAN_ELEMENT_THEORY":"SGP4","SEMIMAJOR_AXIS":"6917.572","MEAN_MOTION_DOT":"0.00072792","LAUNCH_DATE":"2021-11-13","COUNTRY_CODE":"US","MEAN_MOTION":"15.08940793","RA_OF_ASC_NODE":"106.5254","OBJECT_NAME":"STARLINK-3044","INCLINATION":"53.2167","GP_ID":"227580160","PERIAPSIS":"538.351","CENTER_NAME":"EARTH","NORAD_CAT_ID":"49438","SITE":"AFETR","CLASSIFICATION_TYPE":"U","MEAN_MOTION_DDOT":"0.0000000000000","RCS_SIZE":"LARGE","MEAN_ANOMALY":"223.6429","EPHEMERIS_TYPE":"0","PERIOD":"95.431","REV_AT_EPOCH":"7287","ARG_OF_PERICENTER":"136.4687","TLE_LINE2":"2 49438  53.2167 106.5254 0001570 136.4687 223.6429 15.08940793 72873","OBJECT_TYPE":"PAYLOAD","TIME_SYSTEM":"UTC","ELEMENT_SET_NO":"999","BSTAR":"0.00453240000000"},{"MEAN_MOTION_DOT":"-0.00000572","MEAN_ELEMENT_THEORY":"SGP4","SEMIMAJOR_AXIS":"6917.880","DECAY_DATE":null,"TLE_LINE1":"1 49439U 21104AH  23064.82409475 -.00000572  00000-0 -17837-4 0  9997","ECCENTRICITY":"0.00016860","EPOCH":"2023-03-05T19:46:41.786400","REF_FRAME":"TEME","APOAPSIS":"540.911","FILE":"3852256","OBJECT_ID":"2021-104AH","NORAD_CAT_ID":"49439","CENTER_NAME":"EARTH","PERIAPSIS":"538.579","INCLINATION":"53.2160","GP_ID":"227580911","OBJECT_NAME":"STARLINK-3108","RA_OF_ASC_NODE":"106.6169","LAUNCH_DATE":"2021-11-13","MEAN_MOTION":"15.08840167","COUNTRY_CODE":"US","EPHEMERIS_TYPE":"0","PERIOD":"95.438","MEAN_ANOMALY":"268.7550","RCS_SIZE":"LARGE","MEAN_MOTION_DDOT":"0.0000000000000","SITE":"AFETR","CLASSIFICATION_TYPE":"U","BSTAR":"-0.00001783700000","OBJECT_TYPE":"PAYLOAD","TLE_LINE2":"2 49439  53.2160 106.6169 0001686  91.3635 268.7550 15.08840167 72872","ARG_OF_PERICENTER":"91.3635","TIME_SYSTEM":"UTC","ELEMENT_SET_NO":"999","REV_AT_EPOCH":"7287"}];
